OBJECT_NAME,OBJECT_ID,EPOCH,MEAN_MOTION,ECCENTRICITY,INCLINATION,RA_OF_ASC_NODE,ARG_OF_PERICENTER,MEAN_ANOMALY,EPHEMERIS_TYPE,CLASSIFICATION_TYPE,NORAD_CAT_ID,ELEMENT_SET_NO,REV_AT_EPOCH,BSTAR,MEAN_MOTION_DOT,MEAN_MOTION_DDOT
STARLINK-30990,2023-186F,2026-01-17T22:13:23.800224,15.02531887,.00010544,43.0054,343.4321,274.3622,85.7100,0,U,58478,999,11825,.8900916E-4,.999E-5,0
STARLINK-30984,2023-186H,2026-01-17T06:44:41.058528,15.02556683,.00009518,43.0044,346.3273,271.4353,88.6381,0,U,58480,999,11812,.19407849E-3,.242E-4,0
STARLINK-30956,2023-186J,2026-01-17T21:29:52.745568,15.02526861,.00007809,43.0045,318.7826,254.9137,105.1619,0,U,58481,999,11849,.12162691E-3,.1439E-4,0
STARLINK-30997,2023-186K,2026-01-17T21:30:14.261760,15.02549760,.00017031,43.0063,343.1794,274.0059,86.0589,0,U,58482,999,11821,.39331084E-3,.5115E-4,0
STARLINK-30994,2023-186L,2026-01-17T21:08:36.123360,15.27587234,.00010019,43.0017,187.1060,255.6641,104.4099,0,U,58483,999,12003,.6737219E-5,-.77E-6,0
STARLINK-30991,2023-186M,2026-01-17T22:37:12.031968,15.02535698,.00011712,43.0048,342.6912,270.6341,89.4367,0,U,58484,999,11821,.36875886E-4,.295E-5,0
STARLINK-30979,2023-186N,2026-01-17T22:03:48.701952,15.02466773,.00009917,43.0045,343.3820,288.2591,71.8143,0,U,58485,999,11820,.87688827E-3,.1164E-3,0
STARLINK-31005,2023-186P,2026-01-17T07:37:27.512256,15.02540937,.00012507,43.0057,346.6076,270.3875,89.6824,0,U,58486,999,11811,.69159618E-4,.731E-5,0
STARLINK-30987,2023-186Q,2026-01-17T07:32:39.986880,15.02541511,.00011227,43.0054,346.5806,269.0667,91.0047,0,U,58487,999,11811,.61933018E-4,.633E-5,0
STARLINK-31000,2023-186R,2026-01-17T21:49:25.673952,15.02515994,.00007748,43.0039,343.3018,234.2812,125.7958,0,U,58488,999,11820,.40232512E-3,.5232E-4,0
STARLINK-30993,2023-186S,2026-01-17T21:44:37.464288,15.02542721,.00010958,43.0038,343.2797,279.8357,80.2362,0,U,58489,999,11820,-.34106983E-4,-.664E-5,0
STARLINK-30978,2023-186T,2026-01-17T21:39:49.692672,15.02529130,.00011909,43.0051,343.2556,268.6149,91.4557,0,U,58490,999,11820,.23409587E-3,.2959E-4,0
STARLINK-30953,2023-186U,2026-01-17T21:46:04.536480,15.27579723,.00013972,43.0002,194.2900,262.5118,97.5575,0,U,58491,999,12012,.19226988E-4,.267E-5,0
STARLINK-30986,2023-186V,2026-01-17T07:03:53.403840,15.02530223,.00009464,43.0052,346.4325,268.6068,91.4666,0,U,58492,999,11811,-.49979257E-4,-.878E-5,0
STARLINK-30985,2023-186W,2026-01-17T22:56:22.599168,15.02535430,.00011938,43.0046,342.7956,270.5652,89.5053,0,U,58493,999,11821,.75157302E-4,.812E-5,0
STARLINK-30981,2023-186X,2026-01-17T06:54:18.197568,15.02538650,.00010449,43.0048,346.3793,273.2327,86.8396,0,U,58494,999,11811,.1101137E-4,-.55E-6,0
STARLINK-31002,2023-186Y,2026-01-17T17:59:36.144096,15.02552512,.00016661,43.0056,343.8278,266.4231,93.6421,0,U,58495,999,11835,.53323256E-4,.517E-5,0
XINGCHI-1 02A,2023-187A,2026-01-17T23:31:30.065376,14.83663268,.00104452,97.9377,101.7783,275.4128,84.5895,0,U,58496,999,11484,.20241664E-3,.1618E-4,0
MISRSAT-2,2023-187B,2026-01-17T22:28:29.790624,14.82749953,.00098209,97.9389,101.0257,276.5466,83.4629,0,U,58497,999,11477,.16432142E-3,.1274E-4,0
XINGCHI-1 02B,2023-187C,2026-01-17T22:43:10.422624,14.85222907,.00094738,97.9402,102.5621,272.0285,87.9845,0,U,58498,999,11487,.18287277E-3,.1514E-4,0
DOORY-SAT,2023-188A,2026-01-17T22:47:37.711392,14.80092729,.0008336,46.9825,310.1269,38.4692,321.6795,0,U,58500,999,11473,.20725803E-3,.1384E-4,0
2023-189A,2023-189A,2026-01-18T00:20:15.693792,15.31747617,.00132039,97.4470,35.3829,76.8088,283.4625,0,U,58502,999,11821,.15984036E-3,.4832E-4,0
2023-189B,2023-189B,2026-01-17T23:51:52.108704,15.64307554,.00064528,97.4223,47.7653,47.2652,312.9149,0,U,58503,999,11907,.55277038E-3,.52917E-3,0
CHUANGXIN 19 (CX-19),2023-190A,2026-01-17T23:08:41.493696,13.39537198,.00020053,86.5011,24.5358,99.8234,260.3135,0,U,58505,999,10458,.80671662E-4,.59E-6,0
STARLINK-31026,2023-191A,2026-01-17T17:36:34.351488,15.02530918,.00004222,43.0014,23.9399,242.0708,118.0091,0,U,58508,999,11776,.12170174E-4,-.39E-6,0
STARLINK-31020,2023-191B,2026-01-17T23:54:48.782880,15.02540978,.00012087,43.0039,23.3234,266.4754,93.5950,0,U,58509,999,11779,.15177715E-3,.1847E-4,0
STARLINK-30989,2023-191C,2026-01-17T06:43:41.105568,15.02536292,.00007637,43.0039,25.7077,288.6527,71.4232,0,U,58510,999,11773,-.45823779E-4,-.822E-5,0
STARLINK-30968,2023-191D,2026-01-17T17:48:58.715136,15.02535746,.00011808,43.0046,23.1524,276.3247,83.7461,0,U,58511,999,11777,-.2787529E-5,-.241E-5,0
STARLINK-30982,2023-191E,2026-01-17T17:44:11.043744,15.02535927,.00010794,43.0030,23.1259,275.0792,84.9927,0,U,58512,999,11777,.437716E-5,-.144E-5,0
STARLINK-30998,2023-191F,2026-01-17T17:39:24.235488,15.02547170,.0001489,43.0049,23.0969,267.3561,92.7111,0,U,58513,999,11780,.16366466E-3,.2008E-4,0
