STARLINK-30990          
1 58478U 23186F   26017.92596991  .00000999  00000+0  89009-4 0  9994
2 58478  43.0054 343.4321 0001054 274.3622  85.7100 15.02531887118254
STARLINK-30984          
1 58480U 23186H   26017.28103077  .00002420  00000+0  19408-3 0  9991
2 58480  43.0044 346.3273 0000951 271.4353  88.6381 15.02556683118128
STARLINK-30956          
1 58481U 23186J   26017.89574937  .00001439  00000+0  12163-3 0  9996
2 58481  43.0045 318.7826 0000780 254.9137 105.1619 15.02526861118497
STARLINK-30997          
1 58482U 23186K   26017.89599840  .00005115  00000+0  39331-3 0  9998
2 58482  43.0063 343.1794 0001703 274.0059  86.0589 15.02549760118212
STARLINK-30994          
1 58483U 23186L   26017.88097365 -.00000077  00000+0  67372-5 0  9994
2 58483  43.0017 187.1060 0001001 255.6641 104.4099 15.27587234120036
STARLINK-30991          
1 58484U 23186M   26017.94250037  .00000295  00000+0  36876-4 0  9994
2 58484  43.0048 342.6912 0001171 270.6341  89.4367 15.02535698118214
STARLINK-30979          
1 58485U 23186N   26017.91931368  .00011640  00000+0  87689-3 0  9998
2 58485  43.0045 343.3820 0000991 288.2591  71.8143 15.02466773118202
STARLINK-31005          
1 58486U 23186P   26017.31767954  .00000731  00000+0  69160-4 0  9995
2 58486  43.0057 346.6076 0001250 270.3875  89.6824 15.02540937118119
STARLINK-30987          
1 58487U 23186Q   26017.31435170  .00000633  00000+0  61933-4 0  9999
2 58487  43.0054 346.5806 0001122 269.0667  91.0047 15.02541511118112
STARLINK-31000          
1 58488U 23186R   26017.90932493  .00005232  00000+0  40233-3 0  9994
2 58488  43.0039 343.3018 0000774 234.2812 125.7958 15.02515994118206
STARLINK-30993          
1 58489U 23186S   26017.90598917 -.00000664  00000+0 -34107-4 0  9994
2 58489  43.0038 343.2797 0001095 279.8357  80.2362 15.02542721118207
STARLINK-30978          
1 58490U 23186T   26017.90265848  .00002959  00000+0  23410-3 0  9991
2 58490  43.0051 343.2556 0001190 268.6149  91.4557 15.02529130118207
STARLINK-30953          
1 58491U 23186U   26017.90699695  .00000267  00000+0  19227-4 0  9995
2 58491  43.0002 194.2900 0001397 262.5118  97.5575 15.27579723120120
STARLINK-30986          
1 58492U 23186V   26017.29436810 -.00000878  00000+0 -49979-4 0  9993
2 58492  43.0052 346.4325 0000946 268.6068  91.4666 15.02530223118113
STARLINK-30985          
1 58493U 23186W   26017.95581712  .00000812  00000+0  75157-4 0  9992
2 58493  43.0046 342.7956 0001193 270.5652  89.5053 15.02535430118216
STARLINK-30981          
1 58494U 23186X   26017.28771062 -.00000055  00000+0  11011-4 0  9997
2 58494  43.0048 346.3793 0001044 273.2327  86.8396 15.02538650118118
STARLINK-31002          
1 58495U 23186Y   26017.74972389  .00000517  00000+0  53323-4 0  9998
2 58495  43.0056 343.8278 0001666 266.4231  93.6421 15.02552512118350
XINGCHI-1 02A           
1 58496U 23187A   26017.98020909  .00001618  00000+0  20242-3 0  9994
2 58496  97.9377 101.7783 0010445 275.4128  84.5895 14.83663268114840
MISRSAT-2               
1 58497U 23187B   26017.93645591  .00001274  00000+0  16432-3 0  9994
2 58497  97.9389 101.0257 0009820 276.5466  83.4629 14.82749953114775
XINGCHI-1 02B           
1 58498U 23187C   26017.94664841  .00001514  00000+0  18287-3 0  9992
2 58498  97.9402 102.5621 0009473 272.0285  87.9845 14.85222907114875
DOORY-SAT               
1 58500U 23188A   26017.94974203  .00001384  00000+0  20726-3 0  9999
2 58500  46.9825 310.1269 0008336  38.4692 321.6795 14.80092729114739
2023-189A               
1 58502U 23189A   26018.01407053  .00004832  00000+0  15984-3 0  9996
2 58502  97.4470  35.3829 0013203  76.8088 283.4625 15.31747617118214
2023-189B               
1 58503U 23189B   26017.99435311  .00052917  00000+0  55277-3 0  9997
2 58503  97.4223  47.7653 0006452  47.2652 312.9149 15.64307554119072
CHUANGXIN 19 (CX-19)    
1 58505U 23190A   26017.96436914  .00000059  00000+0  80672-4 0  9996
2 58505  86.5011  24.5358 0002005  99.8234 260.3135 13.39537198104582
STARLINK-31026          
1 58508U 23191A   26017.73373092 -.00000039  00000+0  12170-4 0  9999
2 58508  43.0014  23.9399 0000422 242.0708 118.0091 15.02530918117762
STARLINK-31020          
1 58509U 23191B   26017.99639795  .00001847  00000+0  15178-3 0  9990
2 58509  43.0039  23.3234 0001208 266.4754  93.5950 15.02540978117797
STARLINK-30989          
1 58510U 23191C   26017.28033687 -.00000822  00000+0 -45824-4 0  9998
2 58510  43.0039  25.7077 0000763 288.6527  71.4232 15.02536292117735
STARLINK-30968          
1 58511U 23191D   26017.74234624 -.00000241  00000+0 -27875-5 0  9996
2 58511  43.0046  23.1524 0001180 276.3247  83.7461 15.02535746117777
STARLINK-30982          
1 58512U 23191E   26017.73901671 -.00000144  00000+0  43772-5 0  9994
2 58512  43.0030  23.1259 0001079 275.0792  84.9927 15.02535927117775
STARLINK-30998          
1 58513U 23191F   26017.73569717  .00002008  00000+0  16366-3 0  9993
2 58513  43.0049  23.0969 0001489 267.3561  92.7111 15.02547170117805
